TOMORROW-S2             
1 60485U 24149T   26068.75188364  .00008133  00000+0  27683-3 0  9990
2 60485  97.3857 150.0385 0001648 234.3331 125.7757 15.30674935 86869
STARLINK-34550          
1 64683U 25139V   26068.42539114  .00014184  00000+0  49018-3 0  9990
2 64683  53.1594 128.2629 0001280  81.1500 278.9645 15.30193759 40246
